CCSDS_OMM_VERS = 2.0
CREATION_DATE  = 
ORIGINATOR     = 

OBJECT_NAME    = CZ-2C R/B
OBJECT_ID      = 2022-132E
CENTER_NAME    = EARTH
REF_FRAME      = TEME
TIME_SYSTEM    = UTC
MEAN_ELEMENT_THEORY = SGP/SGP4

EPOCH          = 2026-01-31T22:35:55.540320
MEAN_MOTION    = 15.58677989
ECCENTRICITY   = .00171427
INCLINATION    = 97.2947
RA_OF_ASC_NODE = 34.2399
ARG_OF_PERICENTER = 220.3151
MEAN_ANOMALY   = 139.6835

EPHEMERIS_TYPE = 0
CLASSIFICATION_TYPE = U
NORAD_CAT_ID   = 54039
ELEMENT_SET_NO = 999
REV_AT_EPOCH   = 18464
BSTAR          = .47500529E-3
MEAN_MOTION_DOT = .36743E-3
MEAN_MOTION_DDOT = 0

CCSDS_OMM_VERS = 2.0
CREATION_DATE  = 
ORIGINATOR     = 

OBJECT_NAME    = GSLV R/B
OBJECT_ID      = 2022-138AN
CENTER_NAME    = EARTH
REF_FRAME      = TEME
TIME_SYSTEM    = UTC
MEAN_ELEMENT_THEORY = SGP/SGP4

EPOCH          = 2026-01-31T22:43:12.472896
MEAN_MOTION    = 14.96484124
ECCENTRICITY   = .0019442
INCLINATION    = 87.3852
RA_OF_ASC_NODE = 178.6581
ARG_OF_PERICENTER = 287.2382
MEAN_ANOMALY   = 72.6722

EPHEMERIS_TYPE = 0
CLASSIFICATION_TYPE = U
NORAD_CAT_ID   = 54149
ELEMENT_SET_NO = 999
REV_AT_EPOCH   = 17843
BSTAR          = .32029464E-3
MEAN_MOTION_DOT = .3676E-4
MEAN_MOTION_DDOT = 0

CCSDS_OMM_VERS = 2.0
CREATION_DATE  = 
ORIGINATOR     = 

OBJECT_NAME    = XRISM
OBJECT_ID      = 2023-137A
CENTER_NAME    = EARTH
REF_FRAME      = TEME
TIME_SYSTEM    = UTC
MEAN_ELEMENT_THEORY = SGP/SGP4

EPOCH          = 2026-01-31T17:16:52.291488
MEAN_MOTION    = 15.11018165
ECCENTRICITY   = .0008021
INCLINATION    = 31.0010
RA_OF_ASC_NODE = 162.6931
ARG_OF_PERICENTER = 28.5316
MEAN_ANOMALY   = 331.5761

EPHEMERIS_TYPE = 0
CLASSIFICATION_TYPE = U
NORAD_CAT_ID   = 57800
ELEMENT_SET_NO = 999
REV_AT_EPOCH   = 13219
BSTAR          = .34072425E-3
MEAN_MOTION_DOT = .5935E-4
MEAN_MOTION_DDOT = 0

CCSDS_OMM_VERS = 2.0
CREATION_DATE  = 
ORIGINATOR     = 

OBJECT_NAME    = ACS3
OBJECT_ID      = 2024-077B
CENTER_NAME    = EARTH
REF_FRAME      = TEME
TIME_SYSTEM    = UTC
MEAN_ELEMENT_THEORY = SGP/SGP4

EPOCH          = 2026-01-31T21:34:13.815264
MEAN_MOTION    = 13.88055356
ECCENTRICITY   = .00460334
INCLINATION    = 97.2268
RA_OF_ASC_NODE = 341.2793
ARG_OF_PERICENTER = 195.7716
MEAN_ANOMALY   = 164.2016

EPHEMERIS_TYPE = 0
CLASSIFICATION_TYPE = U
NORAD_CAT_ID   = 59588
ELEMENT_SET_NO = 999
REV_AT_EPOCH   = 8909
BSTAR          = .14483359E-1
MEAN_MOTION_DOT = .17415E-3
MEAN_MOTION_DDOT = 0

CCSDS_OMM_VERS = 2.0
CREATION_DATE  = 
ORIGINATOR     = 

OBJECT_NAME    = SZ-21 MODULE
OBJECT_ID      = 2025-246C
CENTER_NAME    = EARTH
REF_FRAME      = TEME
TIME_SYSTEM    = UTC
MEAN_ELEMENT_THEORY = SGP/SGP4

EPOCH          = 2026-01-31T19:01:32.569248
MEAN_MOTION    = 15.65768813
ECCENTRICITY   = .00033542
INCLINATION    = 41.4759
RA_OF_ASC_NODE = 70.0056
ARG_OF_PERICENTER = 262.5729
MEAN_ANOMALY   = 97.4731

EPHEMERIS_TYPE = 0
CLASSIFICATION_TYPE = U
NORAD_CAT_ID   = 66515
ELEMENT_SET_NO = 999
REV_AT_EPOCH   = 1228
BSTAR          = .28367575E-3
MEAN_MOTION_DOT = .29338E-3
MEAN_MOTION_DDOT = 0

