CZ-2C R/B               
1 54039U 22132E   26031.94161505  .00036743  00000+0  47501-3 0  9996
2 54039  97.2947  34.2399 0017142 220.3151 139.6835 15.58677989184643
GSLV R/B                
1 54149U 22138AN  26031.94667214  .00003676  00000+0  32029-3 0  9990
2 54149  87.3852 178.6581 0019442 287.2382  72.6722 14.96484124178438
XRISM                   
1 57800U 23137A   26031.72004967  .00005935  00000+0  34072-3 0  9993
2 57800  31.0010 162.6931 0008021  28.5316 331.5761 15.11018165132192
ACS3                    
1 59588U 24077B   26031.89877101  .00017415  00000+0  14483-1 0  9996
2 59588  97.2268 341.2793 0046033 195.7716 164.2016 13.88055356 89092
SZ-21 MODULE            
1 66515U 25246C   26031.79273807  .00029338  00000+0  28368-3 0  9991
2 66515  41.4759  70.0056 0003354 262.5729  97.4731 15.65768813 12285
